ONEWEB-0098             
1 45442U 20020U   24330.85782623 -.00000103  00000+0 -32555-3 0  9994
2 45442  87.8879 134.2985 0001224  85.0220 275.1048 13.11413155228156
ONEWEB-0055             
1 45443U 20020V   24330.53822491  .00000452  00000+0  12403-2 0  9992
2 45443  87.8879 134.3649 0001433  89.0563 271.0729 13.11417007228084
ONEWEB-0093             
1 45444U 20020W   24331.42920390 -.00000011  00000+0 -68155-4 0  9999
2 45444  87.8881 134.1703 0001577  82.5695 277.5612 13.11416441228274
ONEWEB-0029             
1 45445U 20020X   24330.53232546  .00000540  00000+0  14881-2 0  9990
2 45445  87.8883 134.3624 0001768  88.4207 271.7124 13.11436400228122
ONEWEB-0068             
1 45446U 20020Y   24331.42326230 -.00000450  00000+0 -13055-2 0  9998
2 45446  87.8885 134.1710 0001763  83.9454 276.1875 13.11417311228197
ONEWEB-0046             
1 45447U 20020Z   24330.50517055 -.00000139  00000+0 -42840-3 0  9993
2 45447  87.8882 134.3649 0001771  98.3769 261.7559 13.11419210228072
ONEWEB-0063             
1 45448U 20020AA  24331.44957282  .00000692  00000+0  19159-2 0  9996
2 45448  87.8879 134.1769 0001549 101.0772 259.0530 13.11417007228283
ONEWEB-0019             
1 45449U 20020AB  24330.50857097 -.00000023  00000+0 -10081-3 0  9992
2 45449  87.8887 134.3737 0001353  93.9992 266.1291 13.11417556228008
